{"fetched_at":"2026-07-21T17:53:15.202Z","source":"https://celestrak.org/NORAD/elements/gp.php?GROUP=stations&FORMAT=JSON","constellation":"tiangong","records":[{"OBJECT_NAME":"CSS (TIANHE)","OBJECT_ID":"2021-035A","EPOCH":"2026-07-21T02:40:45.906816","CLASSIFICATION_TYPE":"U","MEAN_MOTION":15.58228865,"ECCENTRICITY":0.00018431,"INCLINATION":41.4684,"RA_OF_ASC_NODE":115.9697,"ARG_OF_PERICENTER":304.6724,"MEAN_ANOMALY":55.394,"EPHEMERIS_TYPE":0,"NORAD_CAT_ID":48274,"ELEMENT_SET_NO":999,"REV_AT_EPOCH":29846,"BSTAR":0.00013514015,"MEAN_MOTION_DOT":0.00010192,"MEAN_MOTION_DDOT":0}]}
